{"type": "FeatureCollection", "features": [ {"type": "Feature", "properties": {"norad_id": 64902, "name": "CO3D 2", "group": "resource", "lat": -27.8881496773224, "lon": 75.27281615612246, "alt_km": 511.1393486328461, "timestamp": "2025-12-21T03:56:50.512558+00:00", "meta": {"OBJECT_NAME": "CO3D 2", "OBJECT_ID": "2025-156D", "EPOCH": "2025-12-20T20:10:20.170272", "MEAN_MOTION": 15.20213953, "ECCENTRICITY": 7.46e-05, "INCLINATION": 97.4344, "RA_OF_ASC_NODE": 70.991, "ARG_OF_PERICENTER": 72.7365, "MEAN_ANOMALY": 287.3951, "EPHEMERIS_TYPE": 0, "CLASSIFICATION_TYPE": "U", "NORAD_CAT_ID": 64902, "ELEMENT_SET_NO": 999, "REV_AT_EPOCH": 2243, "BSTAR": 0.00077915, "MEAN_MOTION_DOT": 0.00016843, "MEAN_MOTION_DDOT": 0}, "tle": {"line1": "1 64902U 25156D   25354.84051123  .00016843  00000+0  77915-3 0  9996", "line2": "2 64902  97.4344  70.9910 0000746  72.7365 287.3951 15.20213953 22434"}}, "geometry": {"type": "Point", "coordinates": [75.27281615612246, -27.8881496773224]}}, {"type": "Feature", "properties": {"norad_id": 64903, "name": "CO3D 1", "group": "resource", "lat": -28.78339949069003, "lon": 75.4236631544283, "alt_km": 511.35436320054214, "timestamp": "2025-12-21T03:56:50.512569+00:00", "meta": {"OBJECT_NAME": "CO3D 1", "OBJECT_ID": "2025-156E", "EPOCH": "2025-12-20T20:10:34.160160", "MEAN_MOTION": 15.20200146, "ECCENTRICITY": 9.14e-05, "INCLINATION": 97.4343, "RA_OF_ASC_NODE": 70.9908, "ARG_OF_PERICENTER": 78.1773, "MEAN_ANOMALY": 281.9565, "EPHEMERIS_TYPE": 0, "CLASSIFICATION_TYPE": "U", "NORAD_CAT_ID": 64903, "ELEMENT_SET_NO": 999, "REV_AT_EPOCH": 2243, "BSTAR": 0.00018868, "MEAN_MOTION_DOT": 4.019e-05, "MEAN_MOTION_DDOT": 0}, "tle": {"line1": "1 64903U 25156E   25354.84067315  .00004019  00000+0  18868-3 0  9991", "line2": "2 64903  97.4343  70.9908 0000914  78.1773 281.9565 15.20200146 22432"}}, "geometry": {"type": "Point", "coordinates": [75.4236631544283, -28.78339949069003]}}, {"type": "Feature", "properties": {"norad_id": 66514, "name": "SENTINEL-6B", "group": "resource", "lat": 62.91922134964306, "lon": -154.65384993917877, "alt_km": 1334.4931120262363, "timestamp": "2025-12-21T03:56:50.512579+00:00", "meta": {"OBJECT_NAME": "SENTINEL-6B", "OBJECT_ID": "2025-264A", "EPOCH": "2025-12-12T06:01:21.428544", "MEAN_MOTION": 12.81479578, "ECCENTRICITY": 0.00078482, "INCLINATION": 66.0385, "RA_OF_ASC_NODE": 163.4531, "ARG_OF_PERICENTER": 270.1376, "MEAN_ANOMALY": 89.874, "EPHEMERIS_TYPE": 0, "CLASSIFICATION_TYPE": "U", "NORAD_CAT_ID": 66514, "ELEMENT_SET_NO": 999, "REV_AT_EPOCH": 322, "BSTAR": 0.00018573353, "MEAN_MOTION_DOT": -1.8e-07, "MEAN_MOTION_DDOT": 0}, "tle": {"line1": "1 66514U 25264A   25346.25094246 -.00000018  00000+0  18573-3 0  9999", "line2": "2 66514  66.0385 163.4531 0007848 270.1376  89.8740 12.81479578  3223"}}, "geometry": {"type": "Point", "coordinates": [-154.65384993917877, 62.91922134964306]}}]}